STARLINK-1629
1 16150C 20057AK  21326.15071466  .00003384  00000-0  22676-3 0  3262
2 16150  53.0517 158.0590 0001799  83.4407 306.5839 15.06395961    19
